CCSDS_OMM_VERS = 2.0
CREATION_DATE  = 
ORIGINATOR     = 

OBJECT_NAME    = ATLAS CENTAUR R/B
OBJECT_ID      = 1972-065B
CENTER_NAME    = EARTH
REF_FRAME      = TEME
TIME_SYSTEM    = UTC
MEAN_ELEMENT_THEORY = SGP/SGP4

EPOCH          = 2026-02-25T06:15:52.004448
MEAN_MOTION    = 14.77645706
ECCENTRICITY   = .003446
INCLINATION    = 35.0027
RA_OF_ASC_NODE = 18.5863
ARG_OF_PERICENTER = 265.5448
MEAN_ANOMALY   = 94.1315

EPHEMERIS_TYPE = 0
CLASSIFICATION_TYPE = U
NORAD_CAT_ID   = 6155
ELEMENT_SET_NO = 999
REV_AT_EPOCH   = 83942
BSTAR          = .18336E-3
MEAN_MOTION_DOT = .1324E-4
MEAN_MOTION_DDOT = 0

CCSDS_OMM_VERS = 2.0
CREATION_DATE  = 
ORIGINATOR     = 

OBJECT_NAME    = SL-8 R/B
OBJECT_ID      = 1975-112B
CENTER_NAME    = EARTH
REF_FRAME      = TEME
TIME_SYSTEM    = UTC
MEAN_ELEMENT_THEORY = SGP/SGP4

EPOCH          = 2026-02-25T09:35:36.520800
MEAN_MOTION    = 14.38195545
ECCENTRICITY   = .00147405
INCLINATION    = 74.0603
RA_OF_ASC_NODE = 41.5196
ARG_OF_PERICENTER = 139.6141
MEAN_ANOMALY   = 220.6110

EPHEMERIS_TYPE = 0
CLASSIFICATION_TYPE = U
NORAD_CAT_ID   = 8459
ELEMENT_SET_NO = 999
REV_AT_EPOCH   = 63010
BSTAR          = .65876669E-4
MEAN_MOTION_DOT = .174E-5
MEAN_MOTION_DDOT = 0

CCSDS_OMM_VERS = 2.0
CREATION_DATE  = 
ORIGINATOR     = 

OBJECT_NAME    = SL-3 R/B
OBJECT_ID      = 1977-057B
CENTER_NAME    = EARTH
REF_FRAME      = TEME
TIME_SYSTEM    = UTC
MEAN_ELEMENT_THEORY = SGP/SGP4

EPOCH          = 2026-02-25T19:17:58.063200
MEAN_MOTION    = 15.45106096
ECCENTRICITY   = .0006689
INCLINATION    = 97.5757
RA_OF_ASC_NODE = 228.2064
ARG_OF_PERICENTER = 333.8734
MEAN_ANOMALY   = 26.2176

EPHEMERIS_TYPE = 0
CLASSIFICATION_TYPE = U
NORAD_CAT_ID   = 10114
ELEMENT_SET_NO = 999
REV_AT_EPOCH   = 66649
BSTAR          = .24656E-3
MEAN_MOTION_DOT = .11584E-3
MEAN_MOTION_DDOT = 0

CCSDS_OMM_VERS = 2.0
CREATION_DATE  = 
ORIGINATOR     = 

OBJECT_NAME    = SEASAT 1
OBJECT_ID      = 1978-064A
CENTER_NAME    = EARTH
REF_FRAME      = TEME
TIME_SYSTEM    = UTC
MEAN_ELEMENT_THEORY = SGP/SGP4

EPOCH          = 2026-02-25T01:04:53.987520
MEAN_MOTION    = 14.46148978
ECCENTRICITY   = .00020025
INCLINATION    = 108.0140
RA_OF_ASC_NODE = 98.9651
ARG_OF_PERICENTER = 290.7088
MEAN_ANOMALY   = 69.3843

EPHEMERIS_TYPE = 0
CLASSIFICATION_TYPE = U
NORAD_CAT_ID   = 10967
ELEMENT_SET_NO = 999
REV_AT_EPOCH   = 50468
BSTAR          = .85630772E-4
MEAN_MOTION_DOT = .169E-5
MEAN_MOTION_DDOT = 0

CCSDS_OMM_VERS = 2.0
CREATION_DATE  = 
ORIGINATOR     = 

OBJECT_NAME    = SL-14 R/B
OBJECT_ID      = 1979-011B
CENTER_NAME    = EARTH
REF_FRAME      = TEME
TIME_SYSTEM    = UTC
MEAN_ELEMENT_THEORY = SGP/SGP4

EPOCH          = 2026-02-25T12:11:16.297728
MEAN_MOTION    = 14.91891828
ECCENTRICITY   = .00176251
INCLINATION    = 82.5227
RA_OF_ASC_NODE = 108.1322
ARG_OF_PERICENTER = 97.8157
MEAN_ANOMALY   = 262.5064

EPHEMERIS_TYPE = 0
CLASSIFICATION_TYPE = U
NORAD_CAT_ID   = 11267
ELEMENT_SET_NO = 999
REV_AT_EPOCH   = 52696
BSTAR          = .49395445E-4
MEAN_MOTION_DOT = .526E-5
MEAN_MOTION_DDOT = 0

CCSDS_OMM_VERS = 2.0
CREATION_DATE  = 
ORIGINATOR     = 

OBJECT_NAME    = SL-8 R/B
OBJECT_ID      = 1979-089B
CENTER_NAME    = EARTH
REF_FRAME      = TEME
TIME_SYSTEM    = UTC
MEAN_ELEMENT_THEORY = SGP/SGP4

EPOCH          = 2026-02-25T12:55:02.092224
MEAN_MOTION    = 14.42342178
ECCENTRICITY   = .0017046
INCLINATION    = 74.0681
RA_OF_ASC_NODE = 113.5391
ARG_OF_PERICENTER = 287.4869
MEAN_ANOMALY   = 72.4424

EPHEMERIS_TYPE = 0
CLASSIFICATION_TYPE = U
NORAD_CAT_ID   = 11574
ELEMENT_SET_NO = 999
REV_AT_EPOCH   = 43435
BSTAR          = .72174E-4
MEAN_MOTION_DOT = .212E-5
MEAN_MOTION_DDOT = 0

CCSDS_OMM_VERS = 2.0
CREATION_DATE  = 
ORIGINATOR     = 

OBJECT_NAME    = SL-14 R/B
OBJECT_ID      = 1980-005B
CENTER_NAME    = EARTH
REF_FRAME      = TEME
TIME_SYSTEM    = UTC
MEAN_ELEMENT_THEORY = SGP/SGP4

EPOCH          = 2026-02-25T05:51:54.463968
MEAN_MOTION    = 14.90913065
ECCENTRICITY   = .0015052
INCLINATION    = 82.5165
RA_OF_ASC_NODE = 319.0395
ARG_OF_PERICENTER = 199.6834
MEAN_ANOMALY   = 160.3806

EPHEMERIS_TYPE = 0
CLASSIFICATION_TYPE = U
NORAD_CAT_ID   = 11672
ELEMENT_SET_NO = 999
REV_AT_EPOCH   = 47463
BSTAR          = .5591E-4
MEAN_MOTION_DOT = .578E-5
MEAN_MOTION_DDOT = 0

CCSDS_OMM_VERS = 2.0
CREATION_DATE  = 
ORIGINATOR     = 

OBJECT_NAME    = SL-8 R/B
OBJECT_ID      = 1981-003B
CENTER_NAME    = EARTH
REF_FRAME      = TEME
TIME_SYSTEM    = UTC
MEAN_ELEMENT_THEORY = SGP/SGP4

EPOCH          = 2026-02-25T03:36:37.570176
MEAN_MOTION    = 15.10456588
ECCENTRICITY   = .02627144
INCLINATION    = 82.9396
RA_OF_ASC_NODE = 301.6143
ARG_OF_PERICENTER = 222.2187
MEAN_ANOMALY   = 135.8555

EPHEMERIS_TYPE = 0
CLASSIFICATION_TYPE = U
NORAD_CAT_ID   = 12139
ELEMENT_SET_NO = 999
REV_AT_EPOCH   = 31278
BSTAR          = .38906575E-3
MEAN_MOTION_DOT = .14931E-3
MEAN_MOTION_DDOT = 0

CCSDS_OMM_VERS = 2.0
CREATION_DATE  = 
ORIGINATOR     = 

OBJECT_NAME    = SL-3 R/B
OBJECT_ID      = 1981-046B
CENTER_NAME    = EARTH
REF_FRAME      = TEME
TIME_SYSTEM    = UTC
MEAN_ELEMENT_THEORY = SGP/SGP4

EPOCH          = 2026-02-25T18:40:27.954048
MEAN_MOTION    = 15.41638643
ECCENTRICITY   = .002049
INCLINATION    = 81.2323
RA_OF_ASC_NODE = 304.0427
ARG_OF_PERICENTER = 62.1283
MEAN_ANOMALY   = 298.2032

EPHEMERIS_TYPE = 0
CLASSIFICATION_TYPE = U
NORAD_CAT_ID   = 12465
ELEMENT_SET_NO = 999
REV_AT_EPOCH   = 43659
BSTAR          = .28947E-3
MEAN_MOTION_DOT = .12316E-3
MEAN_MOTION_DDOT = 0

CCSDS_OMM_VERS = 2.0
CREATION_DATE  = 
ORIGINATOR     = 

OBJECT_NAME    = SL-3 R/B
OBJECT_ID      = 1981-103B
CENTER_NAME    = EARTH
REF_FRAME      = TEME
TIME_SYSTEM    = UTC
MEAN_ELEMENT_THEORY = SGP/SGP4

EPOCH          = 2026-02-25T19:14:02.073696
MEAN_MOTION    = 15.21210094
ECCENTRICITY   = .0012769
INCLINATION    = 81.1569
RA_OF_ASC_NODE = 227.3774
ARG_OF_PERICENTER = 328.9495
MEAN_ANOMALY   = 31.0980

EPHEMERIS_TYPE = 0
CLASSIFICATION_TYPE = U
NORAD_CAT_ID   = 12904
ELEMENT_SET_NO = 999
REV_AT_EPOCH   = 97142
BSTAR          = .23004E-3
MEAN_MOTION_DOT = .5166E-4
MEAN_MOTION_DDOT = 0

CCSDS_OMM_VERS = 2.0
CREATION_DATE  = 
ORIGINATOR     = 

OBJECT_NAME    = SL-3 R/B
OBJECT_ID      = 1982-013B
CENTER_NAME    = EARTH
REF_FRAME      = TEME
TIME_SYSTEM    = UTC
MEAN_ELEMENT_THEORY = SGP/SGP4

EPOCH          = 2026-02-25T17:58:15.155328
MEAN_MOTION    = 15.21868252
ECCENTRICITY   = .0022017
INCLINATION    = 81.1760
RA_OF_ASC_NODE = 174.7613
ARG_OF_PERICENTER = 218.0576
MEAN_ANOMALY   = 141.9102

EPHEMERIS_TYPE = 0
CLASSIFICATION_TYPE = U
NORAD_CAT_ID   = 13068
ELEMENT_SET_NO = 999
REV_AT_EPOCH   = 40253
BSTAR          = .21213E-3
MEAN_MOTION_DOT = .488E-4
MEAN_MOTION_DDOT = 0

CCSDS_OMM_VERS = 2.0
CREATION_DATE  = 
ORIGINATOR     = 

OBJECT_NAME    = SL-3 R/B
OBJECT_ID      = 1982-039B
CENTER_NAME    = EARTH
REF_FRAME      = TEME
TIME_SYSTEM    = UTC
MEAN_ELEMENT_THEORY = SGP/SGP4

EPOCH          = 2026-02-25T19:05:42.639360
MEAN_MOTION    = 15.10000760
ECCENTRICITY   = .0029962
INCLINATION    = 81.1587
RA_OF_ASC_NODE = 229.6736
ARG_OF_PERICENTER = 3.2822
MEAN_ANOMALY   = 356.8594

EPHEMERIS_TYPE = 0
CLASSIFICATION_TYPE = U
NORAD_CAT_ID   = 13154
ELEMENT_SET_NO = 999
REV_AT_EPOCH   = 37984
BSTAR          = .14362E-3
MEAN_MOTION_DOT = .238E-4
MEAN_MOTION_DDOT = 0

