ATLAS CENTAUR R/B       
1 06155U 72065B   26056.26101857  .00001324  00000+0  18336-3 0  9999
2 06155  35.0027  18.5863 0034460 265.5448  94.1315 14.77645706839424
SL-8 R/B                
1 08459U 75112B   26056.39972825  .00000174  00000+0  65877-4 0  9994
2 08459  74.0603  41.5196 0014740 139.6141 220.6110 14.38195545630102
SL-3 R/B                
1 10114U 77057B   26056.80414425  .00011584  00000+0  24656-3 0  9994
2 10114  97.5757 228.2064 0006689 333.8734  26.2176 15.45106096666495
SEASAT 1                
1 10967U 78064A   26056.04506930  .00000169  00000+0  85631-4 0  9996
2 10967 108.0140  98.9651 0002002 290.7088  69.3843 14.46148978504683
SL-14 R/B               
1 11267U 79011B   26056.50782752  .00000526  00000+0  49395-4 0  9996
2 11267  82.5227 108.1322 0017625  97.8157 262.5064 14.91891828526964
SL-8 R/B                
1 11574U 79089B   26056.53821866  .00000212  00000+0  72174-4 0  9998
2 11574  74.0681 113.5391 0017046 287.4869  72.4424 14.42342178434359
SL-14 R/B               
1 11672U 80005B   26056.24438037  .00000578  00000+0  55910-4 0  9993
2 11672  82.5165 319.0395 0015052 199.6834 160.3806 14.90913065474635
SL-8 R/B                
1 12139U 81003B   26056.15043484  .00014931  00000+0  38907-3 0  9993
2 12139  82.9396 301.6143 0262714 222.2187 135.8555 15.10456588312785
SL-3 R/B                
1 12465U 81046B   26056.77810132  .00012316  00000+0  28947-3 0  9990
2 12465  81.2323 304.0427 0020490  62.1283 298.2032 15.41638643436590
SL-3 R/B                
1 12904U 81103B   26056.80141289  .00005166  00000+0  23004-3 0  9990
2 12904  81.1569 227.3774 0012769 328.9495  31.0980 15.21210094971424
SL-3 R/B                
1 13068U 82013B   26056.74878652  .00004880  00000+0  21213-3 0  9999
2 13068  81.1760 174.7613 0022017 218.0576 141.9102 15.21868252402535
SL-3 R/B                
1 13154U 82039B   26056.79563240  .00002380  00000+0  14362-3 0  9992
2 13154  81.1587 229.6736 0029962   3.2822 356.8594 15.10000760379847
